ORBCOMM FM37 [-]        
1 33064U 08031E   24104.47684844  .00002325  00000+0  36197-3 0  9994
2 33064  48.4393 220.9680 0006105 328.9646 147.8327 14.76205587850804
ORBCOMM FM40 [-]        
1 33065U 08031F   24104.42956262  .00002560  00000+0  38394-3 0  9998
2 33065  48.4417 210.8221 0007358 338.2424 139.9406 14.77496229850952
VESSELSAT 1 [-]         
1 37840U 11058C   24104.48958807  .00000407  00000+0  77918-4 0  9993
2 37840  19.9614 173.5547 0013738 140.1198 220.0217 14.11135618645765
ORBCOMM FM109 [+]       
1 40086U 14040A   24104.48011023  .00001056  00000+0  27274-3 0  9993
2 40086  47.0029 243.2148 0001831 170.2661 189.8260 14.56462700518500
ORBCOMM FM107 [+]       
1 40087U 14040B   24104.51448862  .00001061  00000+0  27368-3 0  9993
2 40087  47.0045 244.0161 0000876 145.6059 214.4883 14.56467214518509
ORBCOMM FM106 [-]       
1 40088U 14040C   24104.35718715  .00001374  00000+0  27580-3 0  9996
2 40088  47.0605  99.8932 0018358 234.9391 124.9777 14.66845828520523
ORBCOMM FM111 [-]       
1 40089U 14040D   24103.84715559  .00002930  00000+0  39247-3 0  9995
2 40089  47.0057   6.6027 0033459 298.0121  61.7390 14.81502097526314
ORBCOMM FM104 [-]       
1 40090U 14040E   24103.56546313  .00000843  00000+0  23214-3 0  9994
2 40090  47.0047 277.0894 0016497  37.5312 322.6721 14.55016016517872
